{"type": "FeatureCollection", "features": [ {"type": "Feature", "properties": {"norad_id": 64901, "name": "CO3D 4", "group": "resource", "lat": 53.414750383926425, "lon": 45.81969078577888, "alt_km": 501.0772090560986, "timestamp": "2025-12-05T11:32:55.684502+00:00", "meta": {"OBJECT_NAME": "CO3D 4", "OBJECT_ID": "2025-156C", "EPOCH": "2025-12-01T18:50:45.474720", "MEAN_MOTION": 15.20204195, "ECCENTRICITY": 0.00012108, "INCLINATION": 97.4354, "RA_OF_ASC_NODE": 52.3098, "ARG_OF_PERICENTER": 238.3057, "MEAN_ANOMALY": 121.806, "EPHEMERIS_TYPE": 0, "CLASSIFICATION_TYPE": "U", "NORAD_CAT_ID": 64901, "ELEMENT_SET_NO": 999, "REV_AT_EPOCH": 1954, "BSTAR": -1.4420799e-05, "MEAN_MOTION_DOT": -3.8e-06, "MEAN_MOTION_DDOT": 0}, "tle": {"line1": "1 64901U 25156C   25335.78524855 -.00000380  00000+0 -14421-4 0  9999", "line2": "2 64901  97.4354  52.3098 0001210 238.3057 121.8060 15.20204195 19549"}}, "geometry": {"type": "Point", "coordinates": [45.81969078577888, 53.414750383926425]}}, {"type": "Feature", "properties": {"norad_id": 64902, "name": "CO3D 2", "group": "resource", "lat": -55.9178909454407, "lon": -135.27691756546218, "alt_km": 512.6485690166019, "timestamp": "2025-12-05T11:32:55.684512+00:00", "meta": {"OBJECT_NAME": "CO3D 2", "OBJECT_ID": "2025-156D", "EPOCH": "2025-12-04T17:08:03.933888", "MEAN_MOTION": 15.20209113, "ECCENTRICITY": 9.14e-05, "INCLINATION": 97.4352, "RA_OF_ASC_NODE": 55.0955, "ARG_OF_PERICENTER": 102.2855, "MEAN_ANOMALY": 257.8483, "EPHEMERIS_TYPE": 0, "CLASSIFICATION_TYPE": "U", "NORAD_CAT_ID": 64902, "ELEMENT_SET_NO": 999, "REV_AT_EPOCH": 1998, "BSTAR": 0.0011998, "MEAN_MOTION_DOT": 0.00026002, "MEAN_MOTION_DDOT": 0}, "tle": {"line1": "1 64902U 25156D   25338.71393442  .00026002  00000+0  11998-2 0  9993", "line2": "2 64902  97.4352  55.0955 0000914 102.2855 257.8483 15.20209113 19987"}}, "geometry": {"type": "Point", "coordinates": [-135.27691756546218, -55.9178909454407]}}, {"type": "Feature", "properties": {"norad_id": 64903, "name": "CO3D 1", "group": "resource", "lat": -55.08594142799591, "lon": -134.93152149023084, "alt_km": 512.59285548774, "timestamp": "2025-12-05T11:32:55.684522+00:00", "meta": {"OBJECT_NAME": "CO3D 1", "OBJECT_ID": "2025-156E", "EPOCH": "2025-12-04T18:43:04.190304", "MEAN_MOTION": 15.20210282, "ECCENTRICITY": 9.1e-05, "INCLINATION": 97.4349, "RA_OF_ASC_NODE": 55.1605, "ARG_OF_PERICENTER": 110.8154, "MEAN_ANOMALY": 249.3178, "EPHEMERIS_TYPE": 0, "CLASSIFICATION_TYPE": "U", "NORAD_CAT_ID": 64903, "ELEMENT_SET_NO": 999, "REV_AT_EPOCH": 1999, "BSTAR": 0.00080042, "MEAN_MOTION_DOT": 0.00017304, "MEAN_MOTION_DDOT": 0}, "tle": {"line1": "1 64903U 25156E   25338.77990961  .00017304  00000+0  80042-3 0  9991", "line2": "2 64903  97.4349  55.1605 0000910 110.8154 249.3178 15.20210282 19997"}}, "geometry": {"type": "Point", "coordinates": [-134.93152149023084, -55.08594142799591]}}, {"type": "Feature", "properties": {"norad_id": 66514, "name": "SENTINEL-6B", "group": "resource", "lat": 49.5855142132522, "lon": -150.95386743210793, "alt_km": 1320.0550271410766, "timestamp": "2025-12-05T11:32:55.684532+00:00", "meta": {"OBJECT_NAME": "SENTINEL-6B", "OBJECT_ID": "2025-264A", "EPOCH": "2025-12-04T16:35:23.950752", "MEAN_MOTION": 12.85877695, "ECCENTRICITY": 0.0011543, "INCLINATION": 66.039, "RA_OF_ASC_NODE": 179.2209, "ARG_OF_PERICENTER": 268.4543, "MEAN_ANOMALY": 91.5153, "EPHEMERIS_TYPE": 0, "CLASSIFICATION_TYPE": "U", "NORAD_CAT_ID": 66514, "ELEMENT_SET_NO": 999, "REV_AT_EPOCH": 225, "BSTAR": 0.00030155, "MEAN_MOTION_DOT": 1.3e-07, "MEAN_MOTION_DDOT": 0}, "tle": {"line1": "1 66514U 25264A   25338.69124943  .00000013  00000+0  30155-3 0  9990", "line2": "2 66514  66.0390 179.2209 0011543 268.4543  91.5153 12.85877695  2255"}}, "geometry": {"type": "Point", "coordinates": [-150.95386743210793, 49.5855142132522]}}]}